SHIYAN-12 02 (SY-12 02) 
1 50322U 21129B   26032.71344547  .00000135  00000+0  00000+0 0  9992
2 50322   3.3253  81.8233 0004006 209.6695 141.9171  1.00078284 15136
TJS-9                   
1 50574U 21135A   26032.51779178 -.00000308  00000+0  00000+0 0  9991
2 50574   0.0533 244.4177 0004212 283.5883 287.3190  1.00271702 15061
USA 324                 
1 51280U 22006A   26006.86872354  .00000041  00000+0  00000+0 0  9996
2 51280   0.3822  83.6482 0000621 237.8146 157.2312  1.00342336 14529
USA 325                 
1 51281U 22006B   26006.70962434 -.00000360  00000+0  00000+0 0  9994
2 51281   0.1656  83.9928 0022746 181.1199 218.2610  1.00266333 14512
GOES 18                 
1 51850U 22021A   26032.39215397  .00000000  00000+0  00000+0 0  9996
2 51850   0.0284  95.5561 0000742 266.5918 133.6361  1.00268908  5233
ZHONGXING-6D            
1 52255U 22038A   26032.28716274 -.00000363  00000+0  00000+0 0  9995
2 52255   0.0463 246.4549 0002762  53.0571  60.4230  1.00270825 14056
NILESAT 301             
1 52817U 22061A   26032.41786457 -.00000067  00000+0  00000+0 0  9991
2 52817   0.0473 351.4201 0005782 334.8733 308.7413  1.00272001 13371
CMS-02 (GSAT 24)        
1 52903U 22067A   26032.49420171 -.00000174  00000+0  00000+0 0  9998
2 52903   0.0066 348.6250 0004314 296.0435 107.9211  1.00271759 13245
MEASAT 3D               
1 52904U 22067B   26032.48864104 -.00000251  00000+0  00000+0 0  9992
2 52904   0.0552 295.1964 0003854  20.7947  83.0855  1.00270439 13288
SES-22                  
1 52933U 22071A   26032.32039356  .00000095  00000+0  00000+0 0  9990
2 52933   0.0216  78.9232 0001183 232.3348 156.5861  1.00273176  6164
WFOV (USA 332)          
1 52940U 22073A   26032.44291137 -.00000373  00000+0  00000+0 0  9990
2 52940   3.3624  80.3079 0002270 180.0984 149.9164  1.00268580 13006
TIANLIAN 2-03           
1 53100U 22078A   26032.27870669  .00000062  00000+0  00000+0 0  9992
2 53100   0.3270  70.3683 0003574 236.1446 295.8681  1.00271655 13184
SBIRS GEO-6 (USA 336)   
1 53355U 22092A   26032.51670060 -.00000298  00000+0  00000+0 0  9992
2 53355   3.4913 315.4096 0002478 349.9457 151.3498  1.00271080 12871
EUTELSAT KONNECT VHTS   
1 53765U 22110A   26032.34847375  .00000007  00000+0  00000+0 0  9991
2 53765   0.0595  99.4504 0003023 183.5783 336.6414  1.00270093  5476
ZHONGXING-1E            
1 53813U 22112A   26032.43545801 -.00000159  00000+0  00000+0 0  9995
2 53813   0.0629 262.3059 0004362  21.5828  85.8657  1.00273234 12483
SES-20                  
1 53960U 22123A   26032.39882734 -.00000110  00000+0  00000+0 0  9991
2 53960   0.0138  83.8180 0000968 342.4762 105.7530  1.00270007 12175
SES-21                  
1 53961U 22123B   26032.39336731  .00000060  00000+0  00000+0 0  9996
2 53961   0.0235  39.7894 0000944 274.0751 188.3263  1.00270093  5850
GALAXY 33 (G-33)        
1 54026U 22128A   26032.47753177  .00000069  00000+0  00000+0 0  9999
2 54026   0.0165 327.0626 0002251 331.8323 231.6554  1.00274387 12382
GALAXY 34 (G-34)        
1 54027U 22128B   26032.47169650  .00000046  00000+0  00000+0 0  9992
2 54027   0.0178  83.9813 0001650 259.9244 188.5755  1.00301558 12550
ANGOSAT 2               
1 54033U 22131A   26032.28122005  .00000126  00000+0  00000+0 0  9994
2 54033   0.0129 147.8403 0000262 307.2516 160.6024  1.00271590 12119
EUTELSAT HOTBIRD 13F    
1 54048U 22134A   26032.36475368  .00000077  00000+0  00000+0 0  9990
2 54048   0.0572 278.6257 0002126  77.1323 280.0862  1.00270303 12014
LDPE-2                  
1 54219U 22144A   26032.28546672  .00000002  00000+0  00000+0 0  9997
2 54219   5.3125  64.5686 0000833 269.5439 305.9014  1.01010856 10472
EUTELSAT HOTBIRD 13G    
1 54225U 22146A   26032.35055376  .00000077  00000+0  00000+0 0  9992
2 54225   0.0533 246.6717 0001926 301.6172  82.4123  1.00270366  6104
ZHONGXING-19            
1 54230U 22148A   26032.52299181 -.00000090  00000+0  00000+0 0  9999
2 54230   0.0140  78.8945 0008462 174.9158 229.5498  1.00271497 12022
GALAXY 31 (G-31)        
1 54243U 22153A   26032.39527398  .00000004  00000+0  00000+0 0  9992
2 54243   0.0225 109.5896 0001702 208.4742 194.8076  1.00271456  5774
GALAXY 32 (G-32)        
1 54244U 22153B   26032.40878074  .00000000  00000+0  00000+0 0  9991
2 54244   0.0250  74.7463 0002923 261.2671 211.7713  1.00268744 11781
EUTELSAT 10B            
1 54259U 22157A   26032.34994707  .00000058  00000+0  00000+0 0  9999
2 54259   0.0587  97.5156 0000966  52.4793 117.4901  1.00266374 11667
GALAXY 35 (G-35)        
1 54741U 22170A   26032.40082068 -.00000172  00000+0  00000+0 0  9993
2 54741   0.0141 117.2577 0002206 193.0590 232.4624  1.00271611 11538
GALAXY 36 (G-36)        
1 54742U 22170B   26032.40878074 -.00000195  00000+0  00000+0 0  9999
2 54742   0.0124 133.0472 0001328 237.7968 178.9074  1.00270740 11411
METEOSAT-12 (MTG-I1)    
1 54743U 22170C   26032.34786707 -.00000017  00000+0  00000+0 0  9997
2 54743   0.7055  24.2784 0002306 267.0600 325.1145  1.00269092 11610
SHIJIAN-23 (SJ-23)      
1 55131U 23002A   26032.74295639 -.00000361  00000+0  00000+0 0  9999
2 55131   3.3699  80.0732 0005811 253.2402 170.7953  1.00504250 11157
APSTAR-6E               
1 55239U 23005A   26024.74283767 -.00000309  00000+0  00000+0 0  9993
2 55239   0.0530 247.0056 0001923 350.2708 288.1916  1.00219363 17253
USA 342                 
1 55263U 23008A   26028.78933675  .00000141  00000+0  00000+0 0  9994
2 55263   0.0140  96.0070 0000355 193.7773 146.2186  1.00271463 11116
LDPE-3A                 
1 55264U 23008B   26032.10710575  .00000048  00000+0  00000+0 0  9994
2 55264   1.9651  82.9205 0000150 237.7045  73.6080  1.00561839 10453
ELEKTRO-L 4             
1 55506U 23016A   26032.17430414 -.00000067  00000+0  00000+0 0  9992
2 55506   0.0269  91.8649 0002410 182.8730  85.1975  1.00272817 10962
AMAZONAS NEXUS          
1 55508U 23017A   26032.40720451 -.00000292  00000+0  00000+0 0  9994
2 55508   0.0361  48.1598 0003989 292.5738 236.4427  1.00269270  5689
ZHONGXING-26            
1 55686U 23023A   26032.01610525 -.00000363  00000+0  00000+0 0  9994
2 55686   0.0603  73.1177 0002574 301.1691 247.8243  1.00269055 10869
LUCH-5X (OLYMP-K 2)     
1 55841U 23031A   26032.71682550  .00000024  00000+0  00000+0 0  9993
2 55841   0.0272  98.4682 0001279  98.7974 254.6769  1.00269997 10571
GAOFEN-13 02            
1 55912U 23036A   26032.60253072 -.00000227  00000+0  00000+0 0  9994
2 55912   1.0479 344.0037 0005244 328.4521 184.4833  1.00272334 10730
SES-18                  
1 55970U 23038A   26032.41406049 -.00000111  00000+0  00000+0 0  9995
2 55970   0.0722 267.0307 0003126  20.8060 249.7110  1.00277355 10748
SES-19                  
1 55971U 23038B   26032.39258729  .00000000  00000+0  00000+0 0  9999
2 55971   0.0192 288.8456 0001928  19.5296 189.6529  1.00268662 10725
INTELSAT 40E (IS-40E)   
1 56174U 23052A   26032.32992697  .00000000  00000+0  00000+0 0  9993
2 56174   0.0259 107.5845 0001096 182.6473 229.0876  1.00268763 10466
VIASAT-3 F1             
1 56370U 23060A   26032.25903324 -.00000195  00000+0  00000+0 0  9997
2 56370   0.0072  36.5174 0000567   2.6915  96.5481  1.00270731 10071
ARCTURUS                
1 56371U 23060B   26032.07703226 -.00000074  00000+0  00000+0 0  9993
2 56371   2.4235  81.7025 0000611 354.2538 155.5587  1.00274277 10097
GS-1                    
1 56372U 23060C   26031.86453788 -.00000152  00000+0  00000+0 0  9992
2 56372   2.3743  81.4946 0004608 256.0290 184.6165  1.00303595  6179
BEIDOU-3 G4             
1 56564U 23066A   26026.39408094 -.00000100  00000+0  00000+0 0  9996
2 56564   0.7213 306.1415 0001516 216.8774 264.4347  1.00269231  9978
ARABSAT-7B (BADR-8)     
1 56757U 23075A   26032.35947376  .00000135  00000+0  00000+0 0  9991
2 56757   0.0765  33.4751 0005170 306.8890 306.5768  1.00270978  9750
NVS-01 (IRNSS-1J)       
1 56759U 23076A   26032.51711727 -.00000346  00000+0  00000+0 0  9996
2 56759   2.4936 249.7556 0009159  34.9683 162.6944  1.00272058  9751
NUSANTARA TIGA (SATRIA) 
1 57045U 23086A   26032.44819806 -.00000245  00000+0  00000+0 0  9993
2 57045   0.0444 310.8090 0006086   4.0679 124.0906  1.00269038  8393
H2SAT (HEINRICH HERTZ)  
1 57213U 23093A   26032.34812707 -.00000008  00000+0  00000+0 0  9997
2 57213   0.0154  68.7556 0001043  49.8757 138.9311  1.00268188  9554
SYRACUSE 4B             
1 57214U 23093B   26032.41795125 -.00000064  00000+0  00000+0 0  9992
2 57214   0.0154  68.9877 0000305 256.2103 310.3079  1.00270383  5601
JUPITER 3 (ECHOSTAR 24) 
1 57479U 23108A   26031.90013966 -.00000159  00000+0  00000+0 0  9996
2 57479   0.0142  72.7007 0001034 233.5677  53.6855  1.00271534  9278
GALAXY 37 (G-37)        
1 57493U 23112A   26032.39414732  .00000039  00000+0  00000+0 0  9993
2 57493   0.0194  72.5529 0002171 239.9912 193.9198  1.00271049  9182
LUDI TANCE-4 01A        
1 57624U 23120A   26032.43701801 -.00000192  00000+0  00000+0 0  9990
2 57624  15.1980 197.3210 0006198  92.5349  88.6628  1.00274936  9187
TJS-10                  
1 58204U 23169A   26032.66751189 -.00000009  00000+0  00000+0 0  9994
2 58204   2.1949  82.1763 0005340 186.7076 276.2670  1.00270917  8184
ZHONGXING-6E            
1 58253U 23172A   26032.51354509 -.00000371  00000+0  00000+0 0  9993
2 58253   0.0208  94.0450 0003165 222.1181 115.9250  1.00269241  8296
YAOGAN-41               
1 58582U 23197A   26032.51501844 -.00000368  00000+0  00000+0 0  9997
2 58582   3.3807 311.1957 0009145 187.3538 301.7700  1.00274755  7963
OVZON-3                 
1 58698U 24003A   26032.43112465  .00000042  00000+0  00000+0 0  9998
2 58698   0.0151 138.5584 0000394 119.1212  88.8144  1.00272363  6072
INSAT-3DS               
1 58990U 24033A   26032.49420171 -.00000165  00000+0  00000+0 0  9995
2 58990   0.0454 269.2918 0001995  61.5941  60.7563  1.00269843 45709
